{"type": "FeatureCollection", "features": [ {"type": "Feature", "properties": {"norad_id": 34685, "name": "COSMOS 2251 DEB", "group": "cosmos-2251-debris", "lat": 35.55196239695047, "lon": -67.11568593615742, "alt_km": 697.5136143355803, "timestamp": "2025-12-25T09:48:52.684072+00:00", "meta": {"OBJECT_NAME": "COSMOS 2251 DEB", "OBJECT_ID": "1993-036YF", "EPOCH": "2025-12-24T02:40:25.828320", "MEAN_MOTION": 14.57603922, "ECCENTRICITY": 0.00142084, "INCLINATION": 74.0299, "RA_OF_ASC_NODE": 127.1601, "ARG_OF_PERICENTER": 232.1356, "MEAN_ANOMALY": 304.844, "EPHEMERIS_TYPE": 0, "CLASSIFICATION_TYPE": "U", "NORAD_CAT_ID": 34685, "ELEMENT_SET_NO": 999, "REV_AT_EPOCH": 88697, "BSTAR": 0.0011246786, "MEAN_MOTION_DOT": 5.105e-05, "MEAN_MOTION_DDOT": 0}, "tle": {"line1": "1 34685U 93036YF  25358.11141005  .00005105  00000+0  11247-2 0  9990", "line2": "2 34685  74.0299 127.1601 0014208 232.1356 304.8440 14.57603922886974"}}, "geometry": {"type": "Point", "coordinates": [-67.11568593615742, 35.55196239695047]}}, {"type": "Feature", "properties": {"norad_id": 34689, "name": "COSMOS 2251 DEB", "group": "cosmos-2251-debris", "lat": 73.98340183047894, "lon": -75.1447591479975, "alt_km": 1034.981848333041, "timestamp": "2025-12-25T09:48:52.684082+00:00", "meta": {"OBJECT_NAME": "COSMOS 2251 DEB", "OBJECT_ID": "1993-036YK", "EPOCH": "2025-12-24T14:51:58.111776", "MEAN_MOTION": 14.04584765, "ECCENTRICITY": 0.02266729, "INCLINATION": 74.0907, "RA_OF_ASC_NODE": 202.7308, "ARG_OF_PERICENTER": 268.9545, "MEAN_ANOMALY": 148.6343, "EPHEMERIS_TYPE": 0, "CLASSIFICATION_TYPE": "U", "NORAD_CAT_ID": 34689, "ELEMENT_SET_NO": 999, "REV_AT_EPOCH": 84508, "BSTAR": 0.0030686233, "MEAN_MOTION_DOT": 6.147e-05, "MEAN_MOTION_DDOT": 0}, "tle": {"line1": "1 34689U 93036YK  25358.61942259  .00006147  00000+0  30686-2 0  9994", "line2": "2 34689  74.0907 202.7308 0226672 268.9545 148.6343 14.04584765845083"}}, "geometry": {"type": "Point", "coordinates": [-75.1447591479975, 73.98340183047894]}}, {"type": "Feature", "properties": {"norad_id": 34721, "name": "COSMOS 2251 DEB", "group": "cosmos-2251-debris", "lat": 49.256852081252525, "lon": 104.70855217107166, "alt_km": 959.961546725176, "timestamp": "2025-12-25T09:48:52.684092+00:00", "meta": {"OBJECT_NAME": "COSMOS 2251 DEB", "OBJECT_ID": "1993-036YP", "EPOCH": "2025-12-23T08:06:44.057952", "MEAN_MOTION": 13.96892285, "ECCENTRICITY": 0.0222857, "INCLINATION": 73.9221, "RA_OF_ASC_NODE": 307.8595, "ARG_OF_PERICENTER": 244.8639, "MEAN_ANOMALY": 275.037, "EPHEMERIS_TYPE": 0, "CLASSIFICATION_TYPE": "U", "NORAD_CAT_ID": 34721, "ELEMENT_SET_NO": 999, "REV_AT_EPOCH": 85297, "BSTAR": 0.0009996873, "MEAN_MOTION_DOT": 1.69e-05, "MEAN_MOTION_DDOT": 0}, "tle": {"line1": "1 34721U 93036YP  25357.33800993  .00001690  00000+0  99969-3 0  9995", "line2": "2 34721  73.9221 307.8595 0222857 244.8639 275.0370 13.96892285852970"}}, "geometry": {"type": "Point", "coordinates": [104.70855217107166, 49.256852081252525]}}, {"type": "Feature", "properties": {"norad_id": 34722, "name": "COSMOS 2251 DEB", "group": "cosmos-2251-debris", "lat": -33.64494278705922, "lon": -57.63085131250484, "alt_km": 852.3953947379459, "timestamp": "2025-12-25T09:48:52.684103+00:00", "meta": {"OBJECT_NAME": "COSMOS 2251 DEB", "OBJECT_ID": "1993-036YQ", "EPOCH": "2025-12-24T14:08:50.254656", "MEAN_MOTION": 14.11967666, "ECCENTRICITY": 0.01664902, "INCLINATION": 73.8735, "RA_OF_ASC_NODE": 314.9317, "ARG_OF_PERICENTER": 238.4101, "MEAN_ANOMALY": 240.7273, "EPHEMERIS_TYPE": 0, "CLASSIFICATION_TYPE": "U", "NORAD_CAT_ID": 34722, "ELEMENT_SET_NO": 999, "REV_AT_EPOCH": 86412, "BSTAR": 0.00063957341, "MEAN_MOTION_DOT": 1.307e-05, "MEAN_MOTION_DDOT": 0}, "tle": {"line1": "1 34722U 93036YQ  25358.58947054  .00001307  00000+0  63957-3 0  9997", "line2": "2 34722  73.8735 314.9317 0166490 238.4101 240.7273 14.11967666864129"}}, "geometry": {"type": "Point", "coordinates": [-57.63085131250484, -33.64494278705922]}}, {"type": "Feature", "properties": {"norad_id": 34726, "name": "COSMOS 2251 DEB", "group": "cosmos-2251-debris", "lat": -2.7645406683700893, "lon": -38.63738660978928, "alt_km": 708.4610339653182, "timestamp": "2025-12-25T09:48:52.684113+00:00", "meta": {"OBJECT_NAME": "COSMOS 2251 DEB", "OBJECT_ID": "1993-036YU", "EPOCH": "2025-12-25T01:36:09.360000", "MEAN_MOTION": 14.59529494, "ECCENTRICITY": 0.0041699, "INCLINATION": 74.0282, "RA_OF_ASC_NODE": 322.8075, "ARG_OF_PERICENTER": 109.6355, "MEAN_ANOMALY": 250.9318, "EPHEMERIS_TYPE": 0, "CLASSIFICATION_TYPE": "U", "NORAD_CAT_ID": 34726, "ELEMENT_SET_NO": 999, "REV_AT_EPOCH": 88682, "BSTAR": 0.00045591, "MEAN_MOTION_DOT": 2.162e-05, "MEAN_MOTION_DDOT": 0}, "tle": {"line1": "1 34726U 93036YU  25359.06677500  .00002162  00000+0  45591-3 0  9995", "line2": "2 34726  74.0282 322.8075 0041699 109.6355 250.9318 14.59529494886824"}}, "geometry": {"type": "Point", "coordinates": [-38.63738660978928, -2.7645406683700893]}}, {"type": "Feature", "properties": {"norad_id": 34728, "name": "COSMOS 2251 DEB", "group": "cosmos-2251-debris", "lat": 33.41550580212177, "lon": -121.95559460176986, "alt_km": 627.1671002057101, "timestamp": "2025-12-25T09:48:52.684123+00:00", "meta": {"OBJECT_NAME": "COSMOS 2251 DEB", "OBJECT_ID": "1993-036YW", "EPOCH": "2025-12-24T18:58:01.576992", "MEAN_MOTION": 14.70944014, "ECCENTRICITY": 0.00416127, "INCLINATION": 74.0153, "RA_OF_ASC_NODE": 228.3452, "ARG_OF_PERICENTER": 22.7182, "MEAN_ANOMALY": 337.5818, "EPHEMERIS_TYPE": 0, "CLASSIFICATION_TYPE": "U", "NORAD_CAT_ID": 34728, "ELEMENT_SET_NO": 999, "REV_AT_EPOCH": 88977, "BSTAR": 0.00063115346, "MEAN_MOTION_DOT": 3.889e-05, "MEAN_MOTION_DDOT": 0}, "tle": {"line1": "1 34728U 93036YW  25358.79029603  .00003889  00000+0  63115-3 0  9990", "line2": "2 34728  74.0153 228.3452 0041612  22.7182 337.5818 14.70944014889776"}}, "geometry": {"type": "Point", "coordinates": [-121.95559460176986, 33.41550580212177]}}, {"type": "Feature", "properties": {"norad_id": 34729, "name": "COSMOS 2251 DEB", "group": "cosmos-2251-debris", "lat": -55.19222150577588, "lon": 177.67338795710845, "alt_km": 633.5618150007094, "timestamp": "2025-12-25T09:48:52.684133+00:00", "meta": {"OBJECT_NAME": "COSMOS 2251 DEB", "OBJECT_ID": "1993-036YX", "EPOCH": "2025-12-24T23:18:09.660096", "MEAN_MOTION": 14.83140802, "ECCENTRICITY": 0.0012013, "INCLINATION": 74.0186, "RA_OF_ASC_NODE": 334.1962, "ARG_OF_PERICENTER": 86.5736, "MEAN_ANOMALY": 334.3234, "EPHEMERIS_TYPE": 0, "CLASSIFICATION_TYPE": "U", "NORAD_CAT_ID": 34729, "ELEMENT_SET_NO": 999, "REV_AT_EPOCH": 88639, "BSTAR": 0.002163, "MEAN_MOTION_DOT": 0.00017675, "MEAN_MOTION_DDOT": 0}, "tle": {"line1": "1 34729U 93036YX  25358.97094514  .00017675  00000+0  21630-2 0  9997", "line2": "2 34729  74.0186 334.1962 0012013  86.5736 334.3234 14.83140802886390"}}, "geometry": {"type": "Point", "coordinates": [177.67338795710845, -55.19222150577588]}}, {"type": "Feature", "properties": {"norad_id": 34732, "name": "COSMOS 2251 DEB", "group": "cosmos-2251-debris", "lat": -71.33782811327438, "lon": 11.62499293739053, "alt_km": 727.7789177903533, "timestamp": "2025-12-25T09:48:52.684143+00:00", "meta": {"OBJECT_NAME": "COSMOS 2251 DEB", "OBJECT_ID": "1993-036ZA", "EPOCH": "2025-12-24T23:24:45.613152", "MEAN_MOTION": 14.47313893, "ECCENTRICITY": 0.0040094, "INCLINATION": 74.0455, "RA_OF_ASC_NODE": 70.3222, "ARG_OF_PERICENTER": 219.0009, "MEAN_ANOMALY": 323.0923, "EPHEMERIS_TYPE": 0, "CLASSIFICATION_TYPE": "U", "NORAD_CAT_ID": 34732, "ELEMENT_SET_NO": 999, "REV_AT_EPOCH": 88320, "BSTAR": 0.00014384, "MEAN_MOTION_DOT": 5.04e-06, "MEAN_MOTION_DDOT": 0}, "tle": {"line1": "1 34732U 93036ZA  25358.97552793  .00000504  00000+0  14384-3 0  9991", "line2": "2 34732  74.0455  70.3222 0040094 219.0009 323.0923 14.47313893883206"}}, "geometry": {"type": "Point", "coordinates": [11.62499293739053, -71.33782811327438]}}, {"type": "Feature", "properties": {"norad_id": 34736, "name": "COSMOS 2251 DEB", "group": "cosmos-2251-debris", "lat": -9.649768733037396, "lon": -168.9672735789543, "alt_km": 398.94156716526595, "timestamp": "2025-12-25T09:48:52.684154+00:00", "meta": {"OBJECT_NAME": "COSMOS 2251 DEB", "OBJECT_ID": "1993-036ZE", "EPOCH": "2025-12-25T02:50:36.613248", "MEAN_MOTION": 15.59253257, "ECCENTRICITY": 0.0011108, "INCLINATION": 73.997, "RA_OF_ASC_NODE": 8.8831, "ARG_OF_PERICENTER": 337.2049, "MEAN_ANOMALY": 22.8674, "EPHEMERIS_TYPE": 0, "CLASSIFICATION_TYPE": "U", "NORAD_CAT_ID": 34736, "ELEMENT_SET_NO": 999, "REV_AT_EPOCH": 88640, "BSTAR": 0.0077644, "MEAN_MOTION_DOT": 0.0066393, "MEAN_MOTION_DDOT": 0}, "tle": {"line1": "1 34736U 93036ZE  25359.11847932  .00663930  00000+0  77644-2 0  9999", "line2": "2 34736  73.9970   8.8831 0011108 337.2049  22.8674 15.59253257886406"}}, "geometry": {"type": "Point", "coordinates": [-168.9672735789543, -9.649768733037396]}}, {"type": "Feature", "properties": {"norad_id": 34738, "name": "COSMOS 2251 DEB", "group": "cosmos-2251-debris", "lat": -73.65737391987965, "lon": 17.41696565687247, "alt_km": 710.8045402442549, "timestamp": "2025-12-25T09:48:52.684164+00:00", "meta": {"OBJECT_NAME": "COSMOS 2251 DEB", "OBJECT_ID": "1993-036ZG", "EPOCH": "2025-12-24T18:13:40.925280", "MEAN_MOTION": 14.46329097, "ECCENTRICITY": 0.00475802, "INCLINATION": 74.0156, "RA_OF_ASC_NODE": 120.8009, "ARG_OF_PERICENTER": 264.8662, "MEAN_ANOMALY": 221.5623, "EPHEMERIS_TYPE": 0, "CLASSIFICATION_TYPE": "U", "NORAD_CAT_ID": 34738, "ELEMENT_SET_NO": 999, "REV_AT_EPOCH": 88032, "BSTAR": 0.00032321073, "MEAN_MOTION_DOT": 1.147e-05, "MEAN_MOTION_DDOT": 0}, "tle": {"line1": "1 34738U 93036ZG  25358.75950145  .00001147  00000+0  32321-3 0  9991", "line2": "2 34738  74.0156 120.8009 0047580 264.8662 221.5623 14.46329097880325"}}, "geometry": {"type": "Point", "coordinates": [17.41696565687247, -73.65737391987965]}}]}